ONEWEB-0690             
1 61598U 24188E   25356.19243320 -.00000343  00000+0 -10030-2 0  9994
2 61598  87.8863  56.2939 0002200  86.5575 273.5805 13.11413713 61434
ONEWEB-0691             
1 61599U 24188F   25356.18734534  .00000015  00000+0  56752-5 0  9994
2 61599  87.8834  56.1936 0002059 112.6634 247.4712 13.11413938 61287
ONEWEB-0692             
1 61600U 24188G   25356.20768890 -.00000540  00000+0 -15599-2 0  9998
2 61600  87.8842  56.3344 0000933  82.4440 277.6793 13.11417412 61276
ONEWEB-0693             
1 61601U 24188H   25356.18813787  .00000056  00000+0  11174-3 0  9998
2 61601  87.9092  41.1090 0002552  88.3171 271.8252 13.17650001 62579
ONEWEB-0695             
1 61602U 24188J   25356.18396156  .00000021  00000+0  22396-4 0  9996
2 61602  87.8850  56.3286 0001160 105.9451 254.1804 13.11412897 61262
ONEWEB-0697             
1 61603U 24188K   25355.60579971 -.00000052  00000+0 -18118-3 0  9993
2 61603  87.8850  56.4337 0001090  82.8039 277.3213 13.11418990 61179
ONEWEB-0698             
1 61604U 24188L   25356.19413277 -.00000363  00000+0 -10590-2 0  9995
2 61604  87.8847  56.3317 0001720  65.1526 294.9781 13.11416687 61275
ONEWEB-0699             
1 61605U 24188M   25356.14247559  .00000386  00000+0  10700-2 0  9995
2 61605  87.8810  71.5559 0001195  86.7177 273.4087 13.10370641 60122
ONEWEB-0700             
1 61606U 24188N   25356.22050183  .00000243  00000+0  65950-3 0  9990
2 61606  87.8818  71.4267 0001043 118.2583 241.8650 13.10368108 60120
ONEWEB-0701             
1 61607U 24188P   25356.23708130 -.00000504  00000+0 -14800-2 0  9993
2 61607  87.8807  71.5380 0001060  82.2305 277.8943 13.10371645 60132
ONEWEB-0702             
1 61608U 24188Q   25356.23992404  .00000640  00000+0  17701-2 0  9995
2 61608  87.8820  56.2069 0000739  91.9353 268.1859 13.11415827 61293
ONEWEB-0704             
1 61609U 24188R   25356.22546596 -.00000040  00000+0 -15063-3 0  9998
2 61609  87.8824  71.5064 0000729 105.8238 254.2970 13.10369970 60115
ONEWEB-0705             
1 61610U 24188S   25356.23044333 -.00000227  00000+0 -68671-3 0  9993
2 61610  87.8808  71.5266 0001501 145.4943 214.6282 13.10370615 52288
ONEWEB-0706             
1 61611U 24188T   25356.21551879  .00000531  00000+0  14843-2 0  9997
2 61611  87.8797  71.5493 0001153 115.8427 244.2820 13.10370931 60208
ONEWEB-0707             
1 61612U 24188U   25356.22215502  .00000149  00000+0  38998-3 0  9992
2 61612  87.8813  71.5268 0001098 112.3183 247.8061 13.10370414 60142
ONEWEB-0708             
1 61613U 24188V   25356.16404542 -.00000519  00000+0 -15241-2 0  9998
2 61613  87.8802  71.5729 0001809 124.1369 235.9930 13.10371996 60116
