[{"OBJECT_NAME":"ONEWEB-0690","OBJECT_ID":"2024-188E","EPOCH":"2025-12-22T04:37:06.228480","MEAN_MOTION":13.11413713,"ECCENTRICITY":0.00022003,"INCLINATION":87.8863,"RA_OF_ASC_NODE":56.2939,"ARG_OF_PERICENTER":86.5575,"MEAN_ANOMALY":273.5805,"EPHEMERIS_TYPE":0,"CLASSIFICATION_TYPE":"U","NORAD_CAT_ID":61598,"ELEMENT_SET_NO":999,"REV_AT_EPOCH":6143,"BSTAR":-0.0010030333,"MEAN_MOTION_DOT":-3.43e-6,"MEAN_MOTION_DDOT":0},{"OBJECT_NAME":"ONEWEB-0691","OBJECT_ID":"2024-188F","EPOCH":"2025-12-22T04:29:46.637376","MEAN_MOTION":13.11413938,"ECCENTRICITY":0.00020592,"INCLINATION":87.8834,"RA_OF_ASC_NODE":56.1936,"ARG_OF_PERICENTER":112.6634,"MEAN_ANOMALY":247.4712,"EPHEMERIS_TYPE":0,"CLASSIFICATION_TYPE":"U","NORAD_CAT_ID":61599,"ELEMENT_SET_NO":999,"REV_AT_EPOCH":6128,"BSTAR":5.675154e-6,"MEAN_MOTION_DOT":1.5e-7,"MEAN_MOTION_DDOT":0},{"OBJECT_NAME":"ONEWEB-0692","OBJECT_ID":"2024-188G","EPOCH":"2025-12-22T04:59:04.320960","MEAN_MOTION":13.11417412,"ECCENTRICITY":9.337e-5,"INCLINATION":87.8842,"RA_OF_ASC_NODE":56.3344,"ARG_OF_PERICENTER":82.444,"MEAN_ANOMALY":277.6793,"EPHEMERIS_TYPE":0,"CLASSIFICATION_TYPE":"U","NORAD_CAT_ID":61600,"ELEMENT_SET_NO":999,"REV_AT_EPOCH":6127,"BSTAR":-0.0015598761,"MEAN_MOTION_DOT":-5.4e-6,"MEAN_MOTION_DDOT":0},{"OBJECT_NAME":"ONEWEB-0693","OBJECT_ID":"2024-188H","EPOCH":"2025-12-22T04:30:55.111968","MEAN_MOTION":13.17650001,"ECCENTRICITY":0.00025525,"INCLINATION":87.9092,"RA_OF_ASC_NODE":41.109,"ARG_OF_PERICENTER":88.3171,"MEAN_ANOMALY":271.8252,"EPHEMERIS_TYPE":0,"CLASSIFICATION_TYPE":"U","NORAD_CAT_ID":61601,"ELEMENT_SET_NO":999,"REV_AT_EPOCH":6257,"BSTAR":0.00011174052,"MEAN_MOTION_DOT":5.6e-7,"MEAN_MOTION_DDOT":0},{"OBJECT_NAME":"ONEWEB-0695","OBJECT_ID":"2024-188J","EPOCH":"2025-12-22T04:24:54.278784","MEAN_MOTION":13.11412897,"ECCENTRICITY":0.000116,"INCLINATION":87.885,"RA_OF_ASC_NODE":56.3286,"ARG_OF_PERICENTER":105.9451,"MEAN_ANOMALY":254.1804,"EPHEMERIS_TYPE":0,"CLASSIFICATION_TYPE":"U","NORAD_CAT_ID":61602,"ELEMENT_SET_NO":999,"REV_AT_EPOCH":6126,"BSTAR":2.2395756e-5,"MEAN_MOTION_DOT":2.1e-7,"MEAN_MOTION_DDOT":0},{"OBJECT_NAME":"ONEWEB-0697","OBJECT_ID":"2024-188K","EPOCH":"2025-12-21T14:32:21.094944","MEAN_MOTION":13.1141899,"ECCENTRICITY":0.000109,"INCLINATION":87.885,"RA_OF_ASC_NODE":56.4337,"ARG_OF_PERICENTER":82.8039,"MEAN_ANOMALY":277.3213,"EPHEMERIS_TYPE":0,"CLASSIFICATION_TYPE":"U","NORAD_CAT_ID":61603,"ELEMENT_SET_NO":999,"REV_AT_EPOCH":6117,"BSTAR":-0.00018118,"MEAN_MOTION_DOT":-5.2e-7,"MEAN_MOTION_DDOT":0},{"OBJECT_NAME":"ONEWEB-0698","OBJECT_ID":"2024-188L","EPOCH":"2025-12-22T04:39:33.071328","MEAN_MOTION":13.11416687,"ECCENTRICITY":0.00017203,"INCLINATION":87.8847,"RA_OF_ASC_NODE":56.3317,"ARG_OF_PERICENTER":65.1526,"MEAN_ANOMALY":294.9781,"EPHEMERIS_TYPE":0,"CLASSIFICATION_TYPE":"U","NORAD_CAT_ID":61604,"ELEMENT_SET_NO":999,"REV_AT_EPOCH":6127,"BSTAR":-0.0010589769,"MEAN_MOTION_DOT":-3.63e-6,"MEAN_MOTION_DDOT":0},{"OBJECT_NAME":"ONEWEB-0699","OBJECT_ID":"2024-188M","EPOCH":"2025-12-22T03:25:09.890976","MEAN_MOTION":13.10370641,"ECCENTRICITY":0.00011953,"INCLINATION":87.881,"RA_OF_ASC_NODE":71.5559,"ARG_OF_PERICENTER":86.7177,"MEAN_ANOMALY":273.4087,"EPHEMERIS_TYPE":0,"CLASSIFICATION_TYPE":"U","NORAD_CAT_ID":61605,"ELEMENT_SET_NO":999,"REV_AT_EPOCH":6012,"BSTAR":0.0010699777,"MEAN_MOTION_DOT":3.86e-6,"MEAN_MOTION_DDOT":0},{"OBJECT_NAME":"ONEWEB-0700","OBJECT_ID":"2024-188N","EPOCH":"2025-12-22T05:17:31.358112","MEAN_MOTION":13.10368108,"ECCENTRICITY":0.00010436,"INCLINATION":87.8818,"RA_OF_ASC_NODE":71.4267,"ARG_OF_PERICENTER":118.2583,"MEAN_ANOMALY":241.865,"EPHEMERIS_TYPE":0,"CLASSIFICATION_TYPE":"U","NORAD_CAT_ID":61606,"ELEMENT_SET_NO":999,"REV_AT_EPOCH":6012,"BSTAR":0.00065950181,"MEAN_MOTION_DOT":2.43e-6,"MEAN_MOTION_DDOT":0},{"OBJECT_NAME":"ONEWEB-0701","OBJECT_ID":"2024-188P","EPOCH":"2025-12-22T05:41:23.824320","MEAN_MOTION":13.10371645,"ECCENTRICITY":0.00010607,"INCLINATION":87.8807,"RA_OF_ASC_NODE":71.538,"ARG_OF_PERICENTER":82.2305,"MEAN_ANOMALY":277.8943,"EPHEMERIS_TYPE":0,"CLASSIFICATION_TYPE":"U","NORAD_CAT_ID":61607,"ELEMENT_SET_NO":999,"REV_AT_EPOCH":6013,"BSTAR":-0.0014799659,"MEAN_MOTION_DOT":-5.04e-6,"MEAN_MOTION_DDOT":0},{"OBJECT_NAME":"ONEWEB-0702","OBJECT_ID":"2024-188Q","EPOCH":"2025-12-22T05:45:29.437056","MEAN_MOTION":13.11415827,"ECCENTRICITY":7.395e-5,"INCLINATION":87.882,"RA_OF_ASC_NODE":56.2069,"ARG_OF_PERICENTER":91.9353,"MEAN_ANOMALY":268.1859,"EPHEMERIS_TYPE":0,"CLASSIFICATION_TYPE":"U","NORAD_CAT_ID":61608,"ELEMENT_SET_NO":999,"REV_AT_EPOCH":6129,"BSTAR":0.0017700876,"MEAN_MOTION_DOT":6.4e-6,"MEAN_MOTION_DDOT":0},{"OBJECT_NAME":"ONEWEB-0704","OBJECT_ID":"2024-188R","EPOCH":"2025-12-22T05:24:40.258944","MEAN_MOTION":13.1036997,"ECCENTRICITY":7.299e-5,"INCLINATION":87.8824,"RA_OF_ASC_NODE":71.5064,"ARG_OF_PERICENTER":105.8238,"MEAN_ANOMALY":254.297,"EPHEMERIS_TYPE":0,"CLASSIFICATION_TYPE":"U","NORAD_CAT_ID":61609,"ELEMENT_SET_NO":999,"REV_AT_EPOCH":6011,"BSTAR":-0.0001506299,"MEAN_MOTION_DOT":-4.0e-7,"MEAN_MOTION_DDOT":0},{"OBJECT_NAME":"ONEWEB-0705","OBJECT_ID":"2024-188S","EPOCH":"2025-12-22T05:31:50.303712","MEAN_MOTION":13.10370615,"ECCENTRICITY":0.00015015,"INCLINATION":87.8808,"RA_OF_ASC_NODE":71.5266,"ARG_OF_PERICENTER":145.4943,"MEAN_ANOMALY":214.6282,"EPHEMERIS_TYPE":0,"CLASSIFICATION_TYPE":"U","NORAD_CAT_ID":61610,"ELEMENT_SET_NO":999,"REV_AT_EPOCH":5228,"BSTAR":-0.00068670774,"MEAN_MOTION_DOT":-2.27e-6,"MEAN_MOTION_DDOT":0},{"OBJECT_NAME":"ONEWEB-0706","OBJECT_ID":"2024-188T","EPOCH":"2025-12-22T05:10:20.823456","MEAN_MOTION":13.10370931,"ECCENTRICITY":0.00011531,"INCLINATION":87.8797,"RA_OF_ASC_NODE":71.5493,"ARG_OF_PERICENTER":115.8427,"MEAN_ANOMALY":244.282,"EPHEMERIS_TYPE":0,"CLASSIFICATION_TYPE":"U","NORAD_CAT_ID":61611,"ELEMENT_SET_NO":999,"REV_AT_EPOCH":6020,"BSTAR":0.0014843164,"MEAN_MOTION_DOT":5.31e-6,"MEAN_MOTION_DDOT":0},{"OBJECT_NAME":"ONEWEB-0707","OBJECT_ID":"2024-188U","EPOCH":"2025-12-22T05:19:54.193728","MEAN_MOTION":13.10370414,"ECCENTRICITY":0.0001098,"INCLINATION":87.8813,"RA_OF_ASC_NODE":71.5268,"ARG_OF_PERICENTER":112.3183,"MEAN_ANOMALY":247.8061,"EPHEMERIS_TYPE":0,"CLASSIFICATION_TYPE":"U","NORAD_CAT_ID":61612,"ELEMENT_SET_NO":999,"REV_AT_EPOCH":6014,"BSTAR":0.00038997822,"MEAN_MOTION_DOT":1.49e-6,"MEAN_MOTION_DDOT":0},{"OBJECT_NAME":"ONEWEB-0708","OBJECT_ID":"2024-188V","EPOCH":"2025-12-22T03:56:13.524288","MEAN_MOTION":13.10371996,"ECCENTRICITY":0.00018097,"INCLINATION":87.8802,"RA_OF_ASC_NODE":71.5729,"ARG_OF_PERICENTER":124.1369,"MEAN_ANOMALY":235.993,"EPHEMERIS_TYPE":0,"CLASSIFICATION_TYPE":"U","NORAD_CAT_ID":61613,"ELEMENT_SET_NO":999,"REV_AT_EPOCH":6011,"BSTAR":-0.0015241366,"MEAN_MOTION_DOT":-5.19e-6,"MEAN_MOTION_DDOT":0}]
